[{"OBJECT_NAME":"YUNYAO-1 44","OBJECT_ID":"2025-059B","EPOCH":"2026-03-09T23:37:33.233088","MEAN_MOTION":15.10344945,"ECCENTRICITY":0.00180831,"INCLINATION":97.6069,"RA_OF_ASC_NODE":250.8958,"ARG_OF_PERICENTER":135.5449,"MEAN_ANOMALY":224.7236,"EPHEMERIS_TYPE":0,"CLASSIFICATION_TYPE":"U","NORAD_CAT_ID":63345,"ELEMENT_SET_NO":999,"REV_AT_EPOCH":5332,"BSTAR":0.0003556422,"MEAN_MOTION_DOT":5.791e-5,"MEAN_MOTION_DDOT":0},{"OBJECT_NAME":"STARLINK-35048","OBJECT_ID":"2025-184P","EPOCH":"2026-03-09T17:04:57.766944","MEAN_MOTION":15.05648721,"ECCENTRICITY":4.383e-5,"INCLINATION":97.6025,"RA_OF_ASC_NODE":122.6743,"ARG_OF_PERICENTER":118.8097,"MEAN_ANOMALY":241.3173,"EPHEMERIS_TYPE":0,"CLASSIFICATION_TYPE":"U","NORAD_CAT_ID":65286,"ELEMENT_SET_NO":999,"REV_AT_EPOCH":3125,"BSTAR":8.4130699e-5,"MEAN_MOTION_DOT":1.153e-5,"MEAN_MOTION_DDOT":0}]
